{"type": "FeatureCollection", "features": [ {"type": "Feature", "properties": {"norad_id": 40664, "name": "SKY MEXICO-1", "group": "intelsat", "lat": 0.01968922921140181, "lon": 74.79678923421386, "alt_km": 35797.30471886015, "timestamp": "2025-12-10T04:57:29.273947+00:00", "meta": {"OBJECT_NAME": "SKY MEXICO-1", "OBJECT_ID": "2015-026B", "EPOCH": "2025-12-09T19:26:25.848096", "MEAN_MOTION": 1.00270713, "ECCENTRICITY": 0.0002734, "INCLINATION": 0.0268, "RA_OF_ASC_NODE": 65.0492, "ARG_OF_PERICENTER": 209.5955, "MEAN_ANOMALY": 16.991, "EPHEMERIS_TYPE": 0, "CLASSIFICATION_TYPE": "U", "NORAD_CAT_ID": 40664, "ELEMENT_SET_NO": 999, "REV_AT_EPOCH": 3855, "BSTAR": 0, "MEAN_MOTION_DOT": -2.32e-06, "MEAN_MOTION_DDOT": 0}, "tle": {"line1": "1 40664U 15026B   25343.81002139 -.00000232  00000+0  00000+0 0  9991", "line2": "2 40664   0.0268  65.0492 0002734 209.5955  16.9910  1.00270713 38553"}}, "geometry": {"type": "Point", "coordinates": [74.79678923421386, 0.01968922921140181]}}, {"type": "Feature", "properties": {"norad_id": 40874, "name": "INTELSAT 34 (IS-34)", "group": "intelsat", "lat": 0.01902825615220998, "lon": 98.05129797956889, "alt_km": 35785.873093620765, "timestamp": "2025-12-10T04:57:29.273959+00:00", "meta": {"OBJECT_NAME": "INTELSAT 34 (IS-34)", "OBJECT_ID": "2015-039A", "EPOCH": "2025-12-09T13:18:24.212160", "MEAN_MOTION": 1.00270174, "ECCENTRICITY": 5.84e-05, "INCLINATION": 0.0128, "RA_OF_ASC_NODE": 307.095, "ARG_OF_PERICENTER": 223.5421, "MEAN_ANOMALY": 52.0138, "EPHEMERIS_TYPE": 0, "CLASSIFICATION_TYPE": "U", "NORAD_CAT_ID": 40874, "ELEMENT_SET_NO": 999, "REV_AT_EPOCH": 3772, "BSTAR": 0, "MEAN_MOTION_DOT": -2.83e-06, "MEAN_MOTION_DDOT": 0}, "tle": {"line1": "1 40874U 15039A   25343.55444690 -.00000283  00000+0  00000+0 0  9997", "line2": "2 40874   0.0128 307.0950 0000584 223.5421  52.0138  1.00270174 37726"}}, "geometry": {"type": "Point", "coordinates": [98.05129797956889, 0.01902825615220998]}}, {"type": "Feature", "properties": {"norad_id": 41581, "name": "INTELSAT 31 (IS-31)", "group": "intelsat", "lat": 0.02046816250812702, "lon": 58.4821966436311, "alt_km": 35793.94890784381, "timestamp": "2025-12-10T04:57:29.273971+00:00", "meta": {"OBJECT_NAME": "INTELSAT 31 (IS-31)", "OBJECT_ID": "2016-035A", "EPOCH": "2025-12-09T13:18:03.280032", "MEAN_MOTION": 1.00271737, "ECCENTRICITY": 0.000194, "INCLINATION": 0.017, "RA_OF_ASC_NODE": 272.3085, "ARG_OF_PERICENTER": 308.9308, "MEAN_ANOMALY": 321.7513, "EPHEMERIS_TYPE": 0, "CLASSIFICATION_TYPE": "U", "NORAD_CAT_ID": 41581, "ELEMENT_SET_NO": 999, "REV_AT_EPOCH": 3478, "BSTAR": 0, "MEAN_MOTION_DOT": -1.48e-06, "MEAN_MOTION_DDOT": 0}, "tle": {"line1": "1 41581U 16035A   25343.55420463 -.00000148  00000+0  00000+0 0  9992", "line2": "2 41581   0.0170 272.3085 0001940 308.9308 321.7513  1.00271737 34783"}}, "geometry": {"type": "Point", "coordinates": [58.4821966436311, 0.02046816250812702]}}, {"type": "Feature", "properties": {"norad_id": 41747, "name": "INTELSAT 36 (IS-36)", "group": "intelsat", "lat": -0.023103854263997917, "lon": -137.9722310271926, "alt_km": 35787.02563734156, "timestamp": "2025-12-10T04:57:29.273983+00:00", "meta": {"OBJECT_NAME": "INTELSAT 36 (IS-36)", "OBJECT_ID": "2016-053A", "EPOCH": "2025-12-09T10:28:32.982240", "MEAN_MOTION": 1.00269892, "ECCENTRICITY": 0.00014122, "INCLINATION": 0.0115, "RA_OF_ASC_NODE": 359.5133, "ARG_OF_PERICENTER": 316.9203, "MEAN_ANOMALY": 347.6248, "EPHEMERIS_TYPE": 0, "CLASSIFICATION_TYPE": "U", "NORAD_CAT_ID": 41747, "ELEMENT_SET_NO": 999, "REV_AT_EPOCH": 3404, "BSTAR": 0, "MEAN_MOTION_DOT": -2.2e-07, "MEAN_MOTION_DDOT": 0}, "tle": {"line1": "1 41747U 16053A   25343.43649285 -.00000022  00000+0  00000+0 0  9999", "line2": "2 41747   0.0115 359.5133 0001412 316.9203 347.6248  1.00269892 34045"}}, "geometry": {"type": "Point", "coordinates": [-137.9722310271926, -0.023103854263997917]}}, {"type": "Feature", "properties": {"norad_id": 41945, "name": "INTELSAT 32E (IS-32E)", "group": "intelsat", "lat": 0.02890350802686439, "lon": 110.37859699801788, "alt_km": 35787.56470422927, "timestamp": "2025-12-10T04:57:29.273995+00:00", "meta": {"OBJECT_NAME": "INTELSAT 32E (IS-32E)", "OBJECT_ID": "2017-007B", "EPOCH": "2025-12-09T11:39:18.704160", "MEAN_MOTION": 1.00269368, "ECCENTRICITY": 4.31e-05, "INCLINATION": 0.0272, "RA_OF_ASC_NODE": 68.2271, "ARG_OF_PERICENTER": 288.178, "MEAN_ANOMALY": 213.7239, "EPHEMERIS_TYPE": 0, "CLASSIFICATION_TYPE": "U", "NORAD_CAT_ID": 41945, "ELEMENT_SET_NO": 999, "REV_AT_EPOCH": 3232, "BSTAR": 0, "MEAN_MOTION_DOT": -2.67e-06, "MEAN_MOTION_DDOT": 0}, "tle": {"line1": "1 41945U 17007B   25343.48563315 -.00000267  00000+0  00000+0 0  9994", "line2": "2 41945   0.0272  68.2271 0000431 288.1780 213.7239  1.00269368 32326"}}, "geometry": {"type": "Point", "coordinates": [110.37859699801788, 0.02890350802686439]}}, {"type": "Feature", "properties": {"norad_id": 42818, "name": "INTELSAT 35E (IS-35E)", "group": "intelsat", "lat": 0.022601617506158855, "lon": 119.0328507026589, "alt_km": 35794.941677059745, "timestamp": "2025-12-10T04:57:29.274007+00:00", "meta": {"OBJECT_NAME": "INTELSAT 35E (IS-35E)", "OBJECT_ID": "2017-041A", "EPOCH": "2025-12-09T09:59:05.804160", "MEAN_MOTION": 1.00269353, "ECCENTRICITY": 0.00023078, "INCLINATION": 0.0186, "RA_OF_ASC_NODE": 333.6977, "ARG_OF_PERICENTER": 291.5297, "MEAN_ANOMALY": 288.4535, "EPHEMERIS_TYPE": 0, "CLASSIFICATION_TYPE": "U", "NORAD_CAT_ID": 42818, "ELEMENT_SET_NO": 999, "REV_AT_EPOCH": 3091, "BSTAR": 0, "MEAN_MOTION_DOT": -2.36e-06, "MEAN_MOTION_DDOT": 0}, "tle": {"line1": "1 42818U 17041A   25343.41603940 -.00000236  00000+0  00000+0 0  9990", "line2": "2 42818   0.0186 333.6977 0002307 291.5297 288.4535  1.00269353 30912"}}, "geometry": {"type": "Point", "coordinates": [119.0328507026589, 0.022601617506158855]}}, {"type": "Feature", "properties": {"norad_id": 42950, "name": "INTELSAT 37E (IS-37E)", "group": "intelsat", "lat": 0.023878698172798366, "lon": 135.5178032794954, "alt_km": 35793.18231341289, "timestamp": "2025-12-10T04:57:29.274019+00:00", "meta": {"OBJECT_NAME": "INTELSAT 37E (IS-37E)", "OBJECT_ID": "2017-059A", "EPOCH": "2025-12-09T10:03:50.348736", "MEAN_MOTION": 1.00270735, "ECCENTRICITY": 0.00033791, "INCLINATION": 0.0166, "RA_OF_ASC_NODE": 10.0825, "ARG_OF_PERICENTER": 243.6968, "MEAN_ANOMALY": 317.5906, "EPHEMERIS_TYPE": 0, "CLASSIFICATION_TYPE": "U", "NORAD_CAT_ID": 42950, "ELEMENT_SET_NO": 999, "REV_AT_EPOCH": 3016, "BSTAR": 0, "MEAN_MOTION_DOT": -1.39e-06, "MEAN_MOTION_DDOT": 0}, "tle": {"line1": "1 42950U 17059A   25343.41933274 -.00000139  00000+0  00000+0 0  9994", "line2": "2 42950   0.0166  10.0825 0003379 243.6968 317.5906  1.00270735 30167"}}, "geometry": {"type": "Point", "coordinates": [135.5178032794954, 0.023878698172798366]}}, {"type": "Feature", "properties": {"norad_id": 43632, "name": "AZERSPACE 2 (IS-38)", "group": "intelsat", "lat": -0.021191897305318504, "lon": -161.35527545332266, "alt_km": 35783.29589063928, "timestamp": "2025-12-10T04:57:29.274031+00:00", "meta": {"OBJECT_NAME": "AZERSPACE 2 (IS-38)", "OBJECT_ID": "2018-074A", "EPOCH": "2025-12-09T13:47:13.951392", "MEAN_MOTION": 1.00270529, "ECCENTRICITY": 0.0001542, "INCLINATION": 0.0155, "RA_OF_ASC_NODE": 340.9903, "ARG_OF_PERICENTER": 279.6716, "MEAN_ANOMALY": 69.8172, "EPHEMERIS_TYPE": 0, "CLASSIFICATION_TYPE": "U", "NORAD_CAT_ID": 43632, "ELEMENT_SET_NO": 999, "REV_AT_EPOCH": 2654, "BSTAR": 0, "MEAN_MOTION_DOT": 1.39e-06, "MEAN_MOTION_DDOT": 0}, "tle": {"line1": "1 43632U 18074A   25343.57446703  .00000139  00000+0  00000+0 0  9992", "line2": "2 43632   0.0155 340.9903 0001542 279.6716  69.8172  1.00270529 26545"}}, "geometry": {"type": "Point", "coordinates": [-161.35527545332266, -0.021191897305318504]}}, {"type": "Feature", "properties": {"norad_id": 43633, "name": "HORIZONS-3E", "group": "intelsat", "lat": 0.02365927498692724, "lon": -37.43388451340556, "alt_km": 35783.24184487567, "timestamp": "2025-12-10T04:57:29.274042+00:00", "meta": {"OBJECT_NAME": "HORIZONS-3E", "OBJECT_ID": "2018-074B", "EPOCH": "2025-12-09T14:22:40.555200", "MEAN_MOTION": 1.00267499, "ECCENTRICITY": 0.0001175, "INCLINATION": 0.0427, "RA_OF_ASC_NODE": 177.8689, "ARG_OF_PERICENTER": 108.9563, "MEAN_ANOMALY": 176.4435, "EPHEMERIS_TYPE": 0, "CLASSIFICATION_TYPE": "U", "NORAD_CAT_ID": 43633, "ELEMENT_SET_NO": 999, "REV_AT_EPOCH": 2644, "BSTAR": 0, "MEAN_MOTION_DOT": -2.9e-07, "MEAN_MOTION_DDOT": 0}, "tle": {"line1": "1 43633U 18074B   25343.59908050 -.00000029  00000+0  00000+0 0  9992", "line2": "2 43633   0.0427 177.8689 0001175 108.9563 176.4435  1.00267499 26440"}}, "geometry": {"type": "Point", "coordinates": [-37.43388451340556, 0.02365927498692724]}}, {"type": "Feature", "properties": {"norad_id": 44333, "name": "AT&T T-16", "group": "intelsat", "lat": 0.01056060160726823, "lon": 52.682049202159526, "alt_km": 35787.484713977596, "timestamp": "2025-12-10T04:57:29.274054+00:00", "meta": {"OBJECT_NAME": "AT&T T-16", "OBJECT_ID": "2019-034A", "EPOCH": "2025-12-09T13:14:11.020416", "MEAN_MOTION": 1.00268586, "ECCENTRICITY": 5.4e-05, "INCLINATION": 0.0238, "RA_OF_ASC_NODE": 62.7711, "ARG_OF_PERICENTER": 92.6025, "MEAN_ANOMALY": 20.8533, "EPHEMERIS_TYPE": 0, "CLASSIFICATION_TYPE": "U", "NORAD_CAT_ID": 44333, "ELEMENT_SET_NO": 999, "REV_AT_EPOCH": 2373, "BSTAR": 0, "MEAN_MOTION_DOT": -1.13e-06, "MEAN_MOTION_DDOT": 0}, "tle": {"line1": "1 44333U 19034A   25343.55151644 -.00000113  00000+0  00000+0 0  9996", "line2": "2 44333   0.0238  62.7711 0000540  92.6025  20.8533  1.00268586 23731"}}, "geometry": {"type": "Point", "coordinates": [52.682049202159526, 0.01056060160726823]}}]}